[
    {
        "Altitude(m)": 607897.6108349855,
        "Argument of Periapsis(deg)": 0.0,
        "Eccentricity": 0.0,
        "Inclination(deg)": 60.0,
        "Latitude(deg)": -14.292913093703474,
        "Longitude(deg)": 51.61877646865117,
        "Mean Anomaly(deg)": -16.363600000000062,
        "RAAN(deg)": 160.0,
        "Satellite Name": "Test1 725",
        "Satellite Number": 725,
        "Semi-Major Axis(m)": 6980739.136638005,
        "Time(s)": 0
    },
    {
        "Altitude(m)": 607750.8121787892,
        "Argument of Periapsis(deg)": 0.00010418945913296404,
        "Eccentricity": 0.0,
        "Inclination(deg)": 60.0,
        "Latitude(deg)": -13.758754068134989,
        "Longitude(deg)": 51.905844538739274,
        "Mean Anomaly(deg)": -15.74349385453821,
        "RAAN(deg)": 159.99957995086024,
        "Satellite Name": "Test1 725",
        "Satellite Number": 725,
        "Semi-Major Axis(m)": 6980739.136638005,
        "Time(s)": 10
    }
]